{
  "norad_id": 45754,
  "name": "STARLINK-1477",
  "history": [
    {
      "epoch": "2026-03-28T19:56:52.821888",
      "apogee_km": 521.9702813076165,
      "perigee_km": 518.1193023405121,
      "latitude_deg": 51.53862052722986,
      "longitude_deg": -84.80797568010166,
      "semi_major_axis_km": 6898.181791824064,
      "eccentricity": 0.00027913,
      "inclination_deg": 53.0487,
      "raan_deg": 125.8862,
      "arg_perigee_deg": 37.6616,
      "mean_anomaly_deg": 322.4572,
      "mean_motion_rev_day": 15.15307626
    }
  ]
}