{"fetched_at":"2026-03-29T16:36:15Z","count":15609,"tles":[{"name":"STARLINK-1477","line1":"1 45754U 20038AA  26087.83116692  .00010700  00000+0  57670-3 0  9992","line2":"2 45754  53.0487 125.8862 0002791  37.6616 322.4572 15.15307626319435","category":"Starlink"}]}